{
  "norad_id": 53982,
  "name": "STARLINK-5120",
  "history": [
    {
      "epoch": "2026-03-28T09:07:23.109312",
      "apogee_km": 540.605747321496,
      "perigee_km": 538.8607837257196,
      "latitude_deg": -36.99312531271098,
      "longitude_deg": -25.30765632004477,
      "semi_major_axis_km": 6917.8702655236075,
      "eccentricity": 0.00012612,
      "inclination_deg": 53.2165,
      "raan_deg": 130.253,
      "arg_perigee_deg": 88.8612,
      "mean_anomaly_deg": 271.2525,
      "mean_motion_rev_day": 15.08843312
    }
  ]
}