{"fetched_at":"2026-03-30T20:46:33Z","count":15425,"tles":[{"name":"STARLINK-5120","line1":"1 53982U 22125U   26087.38012858 -.00000248  00000+0  25066-5 0  9995","line2":"2 53982  53.2165 130.2530 0001261  88.8612 271.2525 15.08843312192278","category":"Starlink"}]}